HST                     
1 20580U 90037B   26198.32545454  .00003201  00000+0  96173-4 0  9997
2 20580  28.4720 234.5376 0002187 124.4293 235.6510 15.31073717793199
POLAR                   
1 23802U 96013A   26196.53578426  .00000188  00000+0  00000+0 0  9993
2 23802  79.8926 226.7156 6498828 208.1023  91.7323  1.29846063145237
SWAS                    
1 25560U 98071A   26198.29535404  .00001543  00000+0  10187-3 0  9993
2 25560  69.8942 149.8668 0007784 228.2757 131.7742 15.09754656501817
CXO                     
1 25867U 99040B   26201.11356867  .00000551  00000+0  00000+0 0  9997
2 25867  56.6395 115.7467 7780937 310.0076   0.5836  0.37806069 17440
XMM-NEWTON              
1 25989U 99066A   26199.26509818 -.00000005  00000+0  00000+0 0  9993
2 25989  64.3180 282.5861 4665036  64.3602 359.9798  0.50127855 23154
TERRA                   
1 25994U 99068A   26198.64676432  .00000157  00000+0  40921-4 0  9997
2 25994  97.9440 246.9828 0003502 117.8782  37.1255 14.61124733414056
CLUSTER II-FM7 (SAMBA)  
1 26410U 00041A   26197.13957185  .00051232 -58450-4  00000+0 0  9991
2 26410 149.8273  56.2567 9088690 273.7641 359.2168  0.44844033 20444
CLUSTER II-FM8 (TANGO)  
1 26464U 00045B   26195.45112017  .00019821  00000+0  00000+0 0  9994
2 26464 150.0407  57.1141 9091460 274.4512   1.9889  0.44421596 20433
ODIN                    
1 26702U 01007A   26198.06838138  .00291443  33379-4  95323-3 0  9995
2 26702  97.3705 241.2154 0005205 152.9850 207.1695 15.90578805394128
TIMED                   
1 26998U 01055B   26198.38244716  .00000549  00000+0  53344-4 0  9996
2 26998  74.0667 174.2178 0002280 298.6797  61.4158 14.95347066335333
CORIOLIS                
1 27640U 03001A   26198.49707691  .00000034  00000+0  36449-4 0  9998
2 27640  98.7135 204.9199 0014995 122.9181 237.3440 14.19952245218523
SORCE                   
1 27651U 03004A   26198.35631927  .00001236  00000+0  98886-4 0  9994
2 27651  39.9914  89.5296 0018778 268.9002  90.9640 15.03847817276440
MOST                    
1 27843U 03031D   26198.48184339  .00000006  00000+0  22747-4 0  9998
2 27843  98.7054 205.7857 0010242 158.7137 201.4469 14.21327973195015
SCISAT 1                
1 27858U 03036A   26198.07340351  .00000261  00000+0  38016-4 0  9991
2 27858  73.9301 111.9632 0007276 179.5832 180.5352 14.81480077235874
SWIFT                   
1 28485U 04047A   26198.56074467  .00038109  00000+0  27754-3 0  9995
2 28485  20.5527 310.0785 0002277  47.3664 312.6974 15.71352903191641
HINODE (SOLAR-B)        
1 29479U 06041A   26198.50367919  .00000253  00000+0  51822-4 0  9999
2 29479  98.0548 214.2093 0017217 187.0296 173.0670 14.68659732 59323
SHIJIAN-6 02A (SJ-6 02A)
1 29505U 06046A   26198.56347076  .00005834  00000+0  29644-3 0  9998
2 29505  97.6339 239.8619 0004260  58.9293 301.2358 15.17265777 76874
SHIJIAN-6 02B (SJ-6 02B)
1 29506U 06046B   26198.60335365  .00000599  00000+0  51066-4 0  9999
2 29506  97.7137 227.4735 0013135 327.9327  32.1096 15.01440648 75303
FGRST (GLAST)           
1 33053U 08029A   26198.54361834  .00001868  00000+0  61310-4 0  9990
2 33053  25.5830 353.6790 0007871 327.9938  32.0122 15.24084310   329
SDO                     
1 36395U 10005A   26198.24011013 -.00000096  00000+0  00000+0 0  9994
2 36395  34.7122  85.8846 0001789  45.4972 147.9067  1.00277241 60365
CRYOSAT 2               
1 36508U 10013A   26198.61315142  .00000099  00000+0  23812-4 0  9993
2 36508  92.0358 284.6984 0002424  98.8362 261.3120 14.51898901862490
X-SAT                   
1 37389U 11015C   26198.62436566  .00000067  00000+0  46238-4 0  9991
2 37389  98.3529 174.2013 0012730 253.1266 106.8519 14.25214136792012
GCOM-W1 (SHIZUKU)       
1 38337U 12025A   26198.61184595  .00000180  00000+0  50000-4 0  9996
2 38337  98.2024 138.7075 0001293  78.6885  94.1040 14.57091228753461
NUSTAR                  
1 38358U 12031A   26198.66670139 -.00000189  00000+0 -63965-4 0  9990
2 38358   6.0262 165.4605 0008565 211.9505 299.8491 15.09057553  1305
NEOSSAT                 
1 39089U 13009D   26198.45337422  .00000041  00000+0  29050-4 0  9992
2 39089  98.4192  17.7684 0011578 150.8204 209.3631 14.35836099701087
BRITE-AUSTRIA           
1 39091U 13009F   26198.50657967  .00000060  00000+0  35009-4 0  9992
2 39091  98.4010  17.1942 0010890 144.2011 215.9907 14.36553023701408
IRIS                    
1 39197U 13033A   26198.26578925  .00000498  00000+0  63214-4 0  9999
2 39197  97.9318  37.4480 0023465 217.9016 142.0548 14.85939174704848
HISAKI (SPRINT-A)       
1 39253U 13049A   26198.10340783  .00000090  00000+0  31566-4 0  9994
2 39253  29.7215  67.9110 0136986 259.3468  99.1650 13.55546838635488
CASSIOPE                
1 39265U 13055A   26198.57604993  .00015617 -54364-6  16684-3 0  9995
2 39265  80.9127  29.7378 0282503 319.8032  38.2602 15.27503197672305
STSAT-3                 
1 39422U 13066G   26198.60761899  .00001601  00000+0  12375-3 0  9996
2 39422  97.6198 168.0050 0008863 295.6582  64.3727 15.02893935688774
SWARM B                 
1 39451U 13067A   26198.63962467  .00001877  00000+0  65964-4 0  9994
2 39451  87.7462 333.0661 0002249  84.8534 275.2972 15.28726152687890
SWARM A                 
1 39452U 13067B   26198.60404765  .00005634  00000+0  94685-4 0  9991
2 39452  87.3296  44.9299 0003332  92.5539 267.6104 15.51486566710967
SWARM C                 
1 39453U 13067C   26198.60395543  .00005689  00000+0  95630-4 0  9996
2 39453  87.3296  43.5107 0003328  92.7536 267.4106 15.51485988710928
BRITE-CA1 (TORONTO)     
1 40020U 14033L   26197.93307811  .00000506  00000+0  83590-4 0  9993
2 40020  97.9774 326.3188 0078575 180.6925 179.4187 14.72724463646592
OCO 2                   
1 40059U 14035A   26198.57585100  .00000162  00000+0  46044-4 0  9998
2 40059  98.2020 139.4076 0001430  81.0893 279.0467 14.57133196640474
BRITE-PL2 (HEWELIUSZ)   
1 40119U 14049B   26197.89668719  .00000489  00000+0  50495-4 0  9999
2 40119  97.9120 310.1310 0014171  16.6624 343.5058 14.94689258645888
MMS 1                   
1 40482U 15011A   26198.66670139 -.00001324  00000+0  00000+0 0  9999
2 40482  72.4613 348.4251 8302446 168.1032 167.6117  0.28341307  1365
MMS 2                   
1 40483U 15011B   26198.66670139 -.00001325  00000+0  00000+0 0  9991
2 40483  72.4652 348.4241 8305259 168.1059 167.5987  0.28341252  1365
MMS 3                   
1 40484U 15011C   26198.66670139 -.00001324  00000+0  00000+0 0  9991
2 40484  72.4650 348.4359 8303628 168.1137 167.5727  0.28341259  1335
MMS 4                   
1 40485U 15011D   26198.66670139 -.00001324  00000+0  00000+0 0  9992
2 40485  72.4605 348.4194 8303579 168.1236 167.5682  0.28341288  1363
ASTROSAT                
1 40930U 15052A   26198.56585764  .00001053  00000+0  46553-4 0  9996
2 40930   5.9973 296.6869 0007404 110.4310 249.6614 14.82553913584349
DAMPE                   
1 41173U 15078A   26198.56374965  .00000632  00000+0  23798-4 0  9991
2 41173  97.4558 204.1822 0011337 336.9535  23.1195 15.30856811589195
PISAT                   
1 41784U 16059B   26198.45494007  .00000424  00000+0  79783-4 0  9991
2 41784  97.8192 197.6092 0030507 107.9355 252.5181 14.69031877524181
HXMT (HUIYAN)           
1 42758U 17034A   26198.65341300  .00001988  00000+0  10450-3 0  9997
2 42758  43.0153  13.3671 0031995 336.1296  23.8068 15.18700596502299
FLYING LAPTOP           
1 42831U 17042G   26198.64611184  .00002033  00000+0  16182-3 0  9997
2 42831  97.4818 353.0350 0019599  24.7102 335.5057 15.01322777491024
ZHANGHENG 1-01 (CSES-1) 
1 43194U 18015C   26198.60176515  .00003786  00000+0  17538-3 0  9993
2 43194  97.6896   4.8682 0016601 156.8936 203.3049 15.20626356469262
SALSAT                  
1 46495U 20068K   26197.96833821  .00003909  00000+0  13663-3 0  9991
2 46495  97.8858 202.8562 0009384 186.4299 173.6821 15.30186484319914
IXPE                    
1 49954U 21121A   26198.66670139  .00005701  00000+0  28182-3 0  9998
2 49954   0.2304  86.7826 0006696 181.1547   3.0741 15.10501079  5798
SMILE                   
1 69123U 26109A   26194.95939329  .00000936  00000+0  00000+0 0  9996
2 69123  70.0512 206.6048 8313707 286.9544   0.1879  0.47500629    65
